NORAD_CAT_ID,OBJECT_NAME,OBJECT_TYPE,EPOCH,MEAN_MOTION,ECCENTRICITY,INCLINATION,RA_OF_ASC_NODE,ARG_OF_PERICENTER,MEAN_ANOMALY,BSTAR,MEAN_MOTION_DOT,MEAN_MOTION_DDOT,TLE_LINE0,TLE_LINE1,TLE_LINE2,SEMIMAJOR_AXIS,PERIOD,APOGEE,PERIGEE,DECAYED
49733.0,STARLINK-3252,PAYLOAD,2022-12-14 10:55:53,15.08836544,0.0002246,53.2179,61.8852,35.4238,324.6903,8.0313e-05,9.9e-06,0.0,0 STARLINK-3252,1 49733U 21115K   22348.45548007  .00000990  00000-0  80313-4 0  9995,2 49733  53.2179  61.8852 0002246  35.4238 324.6903 15.08836544 57063,6917.891,95.438,541.31,538.202,0.0
49733.0,STARLINK-3252,PAYLOAD,2022-12-14 14:06:39,15.08840657,0.0002217,53.2183,61.2907,36.7562,323.3582,0.00011576,1.555e-05,0.0,0 STARLINK-3252,1 49733U 21115K   22348.58795700  .00001555  00000-0  11576-3 0  9995,2 49733  53.2183  61.2907 0002217  36.7562 323.3582 15.08840657 57086,6917.878000000002,95.438,541.2769999999998,538.21,0.0
49733.0,STARLINK-3252,PAYLOAD,2022-12-15 06:00:30,15.08851365,0.0002277,53.2175,58.3174,36.1506,323.964,2.0125e-05,3.2e-07,0.0,0 STARLINK-3252,1 49733U 21115K   22349.25035002  .00000032  00000-0  20125-4 0  9992,2 49733  53.2175  58.3174 0002277  36.1506 323.9640 15.08851365 58291,6917.846,95.437,541.286,538.135,0.0
49733.0,STARLINK-3252,PAYLOAD,2022-12-15 13:57:26,15.08846198,0.0002302,53.2172,56.8306,35.3678,324.7466,5.3719e-06,-2.03e-06,0.0,0 STARLINK-3252,1 49733U 21115K   22349.58155201 -.00000203  00000-0  53719-5 0  9999,2 49733  53.2172  56.8306 0002302  35.3678 324.7466 15.08846198 57234,6917.861,95.437,541.319,538.134,0.0
49733.0,STARLINK-3252,PAYLOAD,2022-12-15 17:08:12,15.08843967,0.000231,53.2172,56.2359,36.661,323.454,-2.3844e-05,-6.68e-06,0.0,0 STARLINK-3252,1 49733U 21115K   22349.71403313 -.00000668  00000-0 -23844-4 0  9995,2 49733  53.2172  56.2359 0002310  36.6610 323.4540 15.08843967 57257,6917.868,95.437,541.331,538.135,0.0
49733.0,STARLINK-3252,PAYLOAD,2022-12-15 21:54:21,15.08845396,0.0002672,53.2171,55.3441,35.2579,324.8590000000001,-7.8185e-05,-1.533e-05,0.0,0 STARLINK-3252,1 49733U 21115K   22349.91275350 -.00001533  00000-0 -78185-4 0  9995,2 49733  53.2171  55.3441 0002672  35.2579 324.8590 15.08845396 58392,6917.864000000001,95.437,541.577,537.88,0.0
49733.0,STARLINK-3252,PAYLOAD,2022-12-16 04:15:54,15.088373,0.0002539,53.2171,54.1547,35.9076,324.2086,-1.4614e-05,-5.21e-06,0.0,0 STARLINK-3252,1 49733U 21115K   22350.17771833 -.00000521  00000-0 -14614-4 0  9995,2 49733  53.2171  54.1547 0002539  35.9076 324.2086 15.08837300 58432,6917.889,95.438,541.51,537.997,0.0
49733.0,STARLINK-3252,PAYLOAD,2022-12-16 13:48:13,15.08840805,0.0002406,53.2175,52.3699,35.8614,324.2539,9.3775e-05,1.204e-05,0.0,0 STARLINK-3252,1 49733U 21115K   22350.57515747  .00001204  00000-0  93775-4 0  9991,2 49733  53.2175  52.3699 0002406  35.8614 324.2539 15.08840805 57384,6917.878000000002,95.438,541.4069999999998,538.078,0.0
49733.0,STARLINK-3252,PAYLOAD,2022-12-16 21:45:08,15.08847051,0.0002371,53.2177,50.8835,35.9874,324.1278,7.0986e-05,8.42e-06,0.0,0 STARLINK-3252,1 49733U 21115K   22350.90635282  .00000842  00000-0  70986-4 0  9991,2 49733  53.2177  50.8835 0002371  35.9874 324.1278 15.08847051 58549,6917.859,95.437,541.364,538.0840000000002,0.0
49733.0,STARLINK-3252,PAYLOAD,2022-12-17 12:03:37,15.08836387,0.0002303,53.2185,48.207,45.9332,314.1849,-2.2924e-05,-6.53e-06,0.0,0 STARLINK-3252,1 49733U 21115K   22351.50252138 -.00000653  00000-0 -22924-4 0  9994,2 49733  53.2185  48.2070 0002303  45.9332 314.1849 15.08836387 57525,6917.891,95.438,541.35,538.163,0.0
49733.0,STARLINK-3252,PAYLOAD,2022-12-17 15:14:23,15.08840852,0.0002292,53.2183,47.6122,38.8515,321.2642,-3.4298e-05,-8.34e-06,0.0,0 STARLINK-3252,1 49733U 21115K   22351.63499843 -.00000834  00000-0 -34298-4 0  9992,2 49733  53.2183  47.6122 0002292  38.8515 321.2642 15.08840852 57549,6917.878000000002,95.438,541.328,538.1569999999998,0.0
49733.0,STARLINK-3252,PAYLOAD,2022-12-18 08:43:38,15.08831944,0.0002319,53.2183,44.3414,33.3903,326.7235,0.00010166,1.33e-05,0.0,0 STARLINK-3252,1 49733U 21115K   22352.36364220  .00001330  00000-0  10166-3 0  9990,2 49733  53.2183  44.3414 0002319  33.3903 326.7235 15.08831944 57650,6917.905,95.438,541.374,538.1659999999998,0.0
49733.0,STARLINK-3252,PAYLOAD,2022-12-18 15:05:12,15.08825745,0.0002435,53.2181,43.1522,34.5758,325.5392,-6.442399999999999e-05,-1.313e-05,0.0,0 STARLINK-3252,1 49733U 21115K   22352.62861280 -.00001313  00000-0 -64424-4 0  9997,2 49733  53.2181  43.1522 0002435  34.5758 325.5392 15.08825745 58806,6917.924,95.438,541.4730000000002,538.104,0.0
49733.0,STARLINK-3252,PAYLOAD,2022-12-19 06:59:02,15.08835046,0.0002432,53.2181,40.1784,34.4539,325.6611,0.00011369,1.521e-05,0.0,0 STARLINK-3252,1 49733U 21115K   22353.29100607  .00001521  00000-0  11369-3 0  9998,2 49733  53.2181  40.1784 0002432  34.4539 325.6611 15.08835046 58907,6917.896,95.438,541.443,538.078,0.0
49733.0,STARLINK-3252,PAYLOAD,2022-12-19 19:42:06,15.08851573,0.0002518,53.218,37.7999,34.2367,325.8788,0.00023635,3.476e-05,0.0,0 STARLINK-3252,1 49733U 21115K   22353.82091308  .00003476  00000-0  23635-3 0  9994,2 49733  53.2180  37.7999 0002518  34.2367 325.8788 15.08851573 57873,6917.845,95.437,541.452,537.9680000000002,0.0
49733.0,STARLINK-3252,PAYLOAD,2022-12-20 11:35:59,15.08828433,0.0002611,53.2182,34.8268,39.8792,320.2392,0.00085277,0.00013306,0.0,0 STARLINK-3252,1 49733U 21115K   22354.48333017  .00013306  00000-0  85277-3 0  9996,2 49733  53.2182  34.8268 0002611  39.8792 320.2392 15.08828433 59083,6917.916,95.438,541.587,537.974,0.0
49733.0,STARLINK-3252,PAYLOAD,2022-12-21 09:51:23,15.08818053,0.000258,53.2157,30.661,16.1199,343.9875,-0.0004874,-8.033e-05,0.0,0 STARLINK-3252,1 49733U 21115K   22355.41068854 -.00008033  00000-0 -48740-3 0  9991,2 49733  53.2157  30.6610 0002580  16.1199 343.9875 15.08818053 59225,6917.946999999999,95.439,541.597,538.028,0.0
49733.0,STARLINK-3252,PAYLOAD,2022-12-22 04:56:01,15.08824225,0.00025,53.2165,27.0934,27.6976,332.4149,-4.9588e-05,-1.077e-05,0.0,0 STARLINK-3252,1 49733U 21115K   22356.20557709 -.00001077  00000-0 -49588-4 0  9994,2 49733  53.2165  27.0934 0002500  27.6976 332.4149 15.08824225 59343,6917.929,95.439,541.523,538.064,0.0
49733.0,STARLINK-3252,PAYLOAD,2022-12-22 11:17:34,15.0883182,0.0002576,53.2169,25.9052,30.7187,329.3956,0.00021645,3.157e-05,0.0,0 STARLINK-3252,1 49733U 21115K   22356.47053859  .00003157  00000-0  21645-3 0  9992,2 49733  53.2169  25.9052 0002576  30.7187 329.3956 15.08831820 58278,6917.905,95.438,541.552,537.988,0.0
49733.0,STARLINK-3252,PAYLOAD,2022-12-22 14:28:21,15.08833828,0.0002533,53.2168,25.311,30.0787,330.035,0.00076073,0.00011838,0.0,0 STARLINK-3252,1 49733U 21115K   22356.60302280  .00011838  00000-0  76073-3 0  9992,2 49733  53.2168  25.3110 0002533  30.0787 330.0350 15.08833828 58297,6917.899,95.438,541.5169999999998,538.012,0.0
49733.0,STARLINK-3252,PAYLOAD,2022-12-23 01:36:02,15.08854226,0.0002562,53.2166,23.2293,31.7465,328.3682,0.0010572,0.00016584,0.0,0 STARLINK-3252,1 49733U 21115K   22357.06670080  .00016584  00000-0  10572-2 0  9993,2 49733  53.2166  23.2293 0002562  31.7465 328.3682 15.08854226 59471,6917.837,95.437,541.474,537.93,0.0
49733.0,STARLINK-3252,PAYLOAD,2022-12-23 12:43:44,15.08848458,0.0002552,53.2165,21.1475,31.4871,328.6273,0.0004637,7.101e-05,0.0,0 STARLINK-3252,1 49733U 21115K   22357.53038078  .00007101  00000-0  46370-3 0  9991,2 49733  53.2165  21.1475 0002552  31.4871 328.6273 15.08848458 59543,6917.855,95.437,541.485,537.9540000000002,0.0
49733.0,STARLINK-3252,PAYLOAD,2022-12-23 19:05:17,15.08856633,0.000258,53.2165,19.9582,32.2333,327.8817,0.00069493,0.00010794,0.0,0 STARLINK-3252,1 49733U 21115K   22357.79533821  .00010794  00000-0  69493-3 0  9998,2 49733  53.2165  19.9582 0002580  32.2333 327.8817 15.08856633 58470,6917.83,95.437,541.479,537.91,0.0
49733.0,STARLINK-3252,PAYLOAD,2022-12-24 07:48:21,15.08859148,0.0002642,53.2166,17.5792,33.3619,326.754,0.00055151,8.505e-05,0.0,0 STARLINK-3252,1 49733U 21115K   22358.32525366  .00008505  00000-0  55151-3 0  9996,2 49733  53.2166  17.5792 0002642  33.3619 326.7540 15.08859148 58550,6917.821999999999,95.436,541.515,537.859,0.0
49733.0,STARLINK-3252,PAYLOAD,2022-12-24 18:56:03,15.08845065,0.0002601,53.2169,15.4972,29.1254,330.9883,4.2252e-05,3.84e-06,0.0,0 STARLINK-3252,1 49733U 21115K   22358.78893443  .00000384  00000-0  42252-4 0  9996,2 49733  53.2169  15.4972 0002601  29.1254 330.9883 15.08845065 59734,6917.865,95.437,541.529,537.931,0.0
49733.0,STARLINK-3252,PAYLOAD,2022-12-25 07:39:08,15.08848362,0.0002655,53.2177,13.1188,28.4372,331.6765,0.00012344,1.677e-05,0.0,0 STARLINK-3252,1 49733U 21115K   22359.31885111  .00001677  00000-0  12344-3 0  9993,2 49733  53.2177  13.1188 0002655  28.4372 331.6765 15.08848362 58705,6917.855,95.437,541.557,537.883,0.0
49733.0,STARLINK-3252,PAYLOAD,2022-12-25 12:25:18,15.08840877,0.0002717,53.2179,12.2273,27.8442,332.2695,2.6699e-05,1.36e-06,0.0,0 STARLINK-3252,1 49733U 21115K   22359.51757469  .00000136  00000-0  26699-4 0  9997,2 49733  53.2179  12.2273 0002717  27.8442 332.2695 15.08840877 58737,6917.878000000002,95.437,541.622,537.863,0.0
49733.0,STARLINK-3252,PAYLOAD,2022-12-26 12:16:05,15.08843533,0.0002638,53.2185,7.7656,27.4805,332.6326,1.4163e-05,-6.3e-07,0.0,0 STARLINK-3252,1 49733U 21115K   22360.51117154 -.00000063  00000-0  14163-4 0  9993,2 49733  53.2185   7.7656 0002638  27.4805 332.6326 15.08843533 59995,6917.87,95.437,541.56,537.91,0.0
49733.0,STARLINK-3252,PAYLOAD,2022-12-27 00:59:09,15.08845098,0.0002638,53.2184,5.3871,27.6586,332.4546,8.842899999999999e-05,1.119e-05,0.0,0 STARLINK-3252,1 49733U 21115K   22361.04108774  .00001119  00000-0  88429-4 0  9998,2 49733  53.2184   5.3871 0002638  27.6586 332.4546 15.08845098 58961,6917.865,95.437,541.555,537.905,0.0
